CUTE-1 (CO-55)          
1 27844U 03031E   26165.57849404  .00000250  00000+0  12698-3 0  9998
2 27844  98.6736 174.1701 0009356 185.5498 174.5579 14.24334256191306
CUBESAT XI-IV (CO-57)   
1 27848U 03031J   26165.77649317  .00000203  00000+0  10839-3 0  9998
2 27848  98.6767 174.0803 0008869 204.4357 155.6402 14.23619629191033
CUBESAT XI-V            
1 28895U 05043F   26165.68474505  .00001249  00000+0  20428-3 0  9997
2 28895  98.2983 321.2541 0013480 208.9550 151.0910 14.72625493101389
CUTE-1.7+APD II (CO-65) 
1 32785U 08021C   26165.86229626  .00004321  00000+0  27403-3 0  9995
2 32785  97.8270 147.2324 0010068  46.4137 313.7926 15.09433867984843
CANX-2                  
1 32790U 08021H   26165.49693286  .00004312  00000+0  30315-3 0  9993
2 32790  97.8624 145.2217 0011481  58.4901 301.7445 15.05597055984404
SEEDS II (CO-66)        
1 32791U 08021J   26165.72000341  .00016933  00000+0  53861-3 0  9997
2 32791  97.7509 163.4997 0001425  12.3890 347.7385 15.32677924986911
SWISSCUBE               
1 35932U 09051B   26165.63721316  .00000885  00000+0  18441-3 0  9997
2 35932  98.4039  73.4810 0005810 212.0978 147.9870 14.62477414888788
BEESAT-1                
1 35933U 09051C   26165.64532213  .00000731  00000+0  15655-3 0  9999
2 35933  98.3967  73.1301 0004093 226.7801 133.3058 14.61716870888811
ITUPSAT1                
1 35935U 09051E   26165.22290826  .00000683  00000+0  15098-3 0  9993
2 35935  98.4052  71.8963 0006164 244.9503 115.1057 14.60436749888304
TISAT 1                 
1 36799U 10035E   26165.83056131  .00018450  00000+0  60608-3 0  9990
2 36799  98.0712 112.1707 0001083 170.7818 189.3442 15.31631796867347
AEROCUBE 4.5A           
1 38767U 12048K   26165.77990604  .00404067  71404-4  10545-2 0  9996
2 38767  64.6248  35.6900 0019578 222.2856 137.6797 15.94328920372277
STRAND-1                
1 39090U 13009E   26165.75848832  .00000234  00000+0  92916-4 0  9998
2 39090  98.3921 346.0527 0007612 233.5298 126.5188 14.37162022696718
BRITE-AUSTRIA           
1 39091U 13009F   26165.77031523  .00000147  00000+0  64593-4 0  9995
2 39091  98.3993 345.2659 0009062 244.6230 115.4018 14.36541228696701
NEE-01 PEGASO           
1 39151U 13018B   26165.31799982  .00002150  00000+0  20906-3 0  9997
2 39151  98.1215 309.3736 0012835 168.5620 191.5892 14.93647786710272
POPACS 2                
1 39269U 13055E   26165.22389900  .00013658  00000+0  23173-3 0  9997
2 39269  80.9900 147.5841 0416875 203.2966 154.8876 14.91145737662775
POPACS 3                
1 39270U 13055F   26165.64571037  .00009121  00000+0  21433-3 0  9996
2 39270  81.0022 231.9423 0552338  77.7255 288.5196 14.56082854638187
ZACUBE-1 (TSHEPISOSAT)  
1 39417U 13066B   26165.87437169  .00003043  00000+0  23821-3 0  9993
2 39417  97.8082 128.1989 0040555 255.7750 103.8967 15.01177435680381
WNISAT-1                
1 39423U 13066H   26165.67192888  .00000723  00000+0  14057-3 0  9997
2 39423  97.7198 315.0068 0161861 239.5704 118.9420 14.58058415666363
TRITON-1                
1 39427U 13066M   26165.79695399  .00002166  00000+0  26396-3 0  9991
2 39427  97.8257  75.6585 0088390 241.8165 117.4099 14.81701071673733
GOMX-1                  
1 39430U 13066Q   26165.80269187  .00002648  00000+0  39989-3 0  9996
2 39430  97.6481   6.4166 0130187  85.1182 276.4875 14.69455312669565
CUBEBUG-2 (LO-74)       
1 39440U 13066AA  26165.85263433  .00004175  00000+0  38675-3 0  9998
2 39440  97.8904 114.8208 0058552  36.5594 323.9600 14.93744304676641
NEE-02 KRYSAOR          
1 39441U 13066AB  26165.78611106  .00002294  00000+0  25439-3 0  9999
2 39441  97.8892 105.0179 0067684  77.8903 282.9886 14.86609034675848
FUNCUBE-1 (AO-73)       
1 39444U 13066AE  26165.86898016  .00006690  00000+0  41591-3 0  9999
2 39444  97.8271 137.2664 0035429 209.1760 150.7489 15.09465367679313
UWE-3                   
1 39446U 13066AG  26165.80939091  .00004072  00000+0  35106-3 0  9991
2 39446  97.8691 121.8670 0047958 329.0544  30.7853 14.97007905677225
BRITE-CA1 (TORONTO)     
1 40020U 14033L   26165.86355865  .00000624  00000+0  10163-3 0  9998
2 40020  97.9736 294.8343 0077259 284.5903  74.6746 14.72673826641879
DUCHIFAT-1              
1 40021U 14033M   26165.65491135  .00096402  00000+0  10079-2 0  9991
2 40021  98.0472 224.4598 0003201 116.2617 243.8969 15.64143507655354
NANOSATC-BR1            
1 40024U 14033Q   26165.59181314  .00015703  00000+0  52030-3 0  9991
2 40024  98.0719 197.7493 0004180 169.8700 190.2624 15.31384788653589
QB50P1                  
1 40025U 14033R   26165.77742709  .00008055  00000+0  39690-3 0  9992
2 40025  98.0959 176.7542 0007630 224.7653 135.2964 15.18228731652663
QB50P2                  
1 40032U 14033Y   26165.72259912  .00006341  00000+0  34202-3 0  9994
2 40032  98.0744 162.4494 0007780 170.9203 189.2170 15.15131404652294
PERSEUS-M2              
1 40037U 14033AD  26165.85516412  .00001413  00000+0  13299-3 0  9992
2 40037  97.9955 116.3482 0011018 312.6313  47.3977 14.95503005650432
